{"spkid": "50959241", "covariance": {"elements": [{"sigma": 1.70664294626377e-07, "name": "e", "value": ".5644625486257132", "title": "eccentricity", "units": null, "label": "e"}, {"label": "q", "units": "au", "value": ".6389239405889157", "title": "perihelion distance", "sigma": 2.70734939000273e-07, "name": "q"}, {"title": "time of perihelion passage", "value": "2458785.832323642844", "units": "TDB", "sigma": 1.99232790709148e-05, "name": "tp", "label": "tp"}, {"label": "node", "name": "om", "sigma": 3.06564513242339e-05, "units": "deg", "value": "107.810527201103", "title": "longitude of the ascending node"}, {"sigma": 3.38171223903738e-05, "name": "w", "title": "argument of perihelion", "value": "257.5468861045781", "units": "deg", "label": "peri"}, {"label": "i", "sigma": 1.63300050673534e-05, "name": "i", "title": "inclination", "value": "5.142844939563203", "units": "deg"}], "data": [["2.912630146031891E-14", "-4.615977312706863E-14", "9.766585994969353E-14", "-1.942032150287584E-12", "-2.548443420962743E-12", "-1.653750794045655E-12"], ["-4.615977312706863E-14", "7.329740719548153E-14", "-3.547452043442781E-13", "3.093111042492769E-12", "3.941242689184901E-12", "2.622334882590455E-12"], ["9.766585994969353E-14", "-3.547452043442781E-13", "3.969370489375536E-10", "-4.999668367265012E-11", "2.153174649138998E-10", "-2.278794000374269E-11"], ["-1.942032150287584E-12", "3.093111042492769E-12", "-4.999668367265012E-11", "9.398180077951201E-10", "-6.48453528639908E-10", "1.07897912763431E-10"], ["-2.548443420962743E-12", "3.941242689184901E-12", "2.153174649138998E-10", "-6.48453528639908E-10", "1.143597766765523E-9", "1.41833422165887E-10"], ["-1.653750794045655E-12", "2.622334882590455E-12", "-2.278794000374269E-11", "1.07897912763431E-10", "1.41833422165887E-10", "2.666690654997877E-10"]], "labels": ["e", "q", "tp", "node", "peri", "i"], "epoch": "2458929.5"}, "elements": [{"sigma": "1.7057E-7", "name": "e", "units": null, "title": "eccentricity", "value": ".5645460152238414", "label": "e"}, {"name": "a", "sigma": "5.4415E-8", "value": "1.466643285858329", "title": "semi-major axis", "units": "au", "label": "a"}, {"sigma": "2.7093E-7", "name": "q", "title": "perihelion distance", "value": ".6386556630722079", "units": "au", "label": "q"}, {"name": "i", "sigma": "1.6328E-5", "units": "deg", "value": "5.143125040727329", "title": "inclination; angle with respect to x-y ecliptic plane", "label": "i"}, {"label": "node", "units": "deg", "value": "107.7816501985215", "title": "longitude of the ascending node", "sigma": "3.0663E-5", "name": "om"}, {"label": "peri", "units": "deg", "value": "257.5880586044003", "title": "argument of perihelion", "sigma": "3.3799E-5", "name": "w"}, {"label": "M", "title": "mean anomaly", "value": "259.7285848357086", "units": "deg", "sigma": "6.9936E-5", "name": "ma"}, {"sigma": ".000136", "name": "tp", "units": "TDB", "title": "time of perihelion passage", "value": "2461381.200692980515", "label": "tp"}, {"label": "period", "units": "d", "title": "sidereal orbital period", "value": "648.7616572120721", "name": "per", "sigma": "3.6105E-5"}, {"label": "n", "units": "deg/d", "value": ".5549033238909808", "title": "mean motion", "name": "n", "sigma": "3.0882E-8"}, {"units": "au", "title": "aphelion distance", "value": "2.294630908644449", "name": "ad", "sigma": "8.5135E-8", "label": "Q"}], "epoch": "2461200.5"}